OBJECT_NAME,OBJECT_ID,EPOCH,MEAN_MOTION,ECCENTRICITY,INCLINATION,RA_OF_ASC_NODE,ARG_OF_PERICENTER,MEAN_ANOMALY,EPHEMERIS_TYPE,CLASSIFICATION_TYPE,NORAD_CAT_ID,ELEMENT_SET_NO,REV_AT_EPOCH,BSTAR,MEAN_MOTION_DOT,MEAN_MOTION_DDOT
DMSP 5D-3 F16 (USA 172),2003-048A,2026-07-07T04:24:38.609280,14.14484904,.0008214,98.9886,212.1438,90.7987,334.1463,0,U,28054,999,17231,.30538E-4,.13E-6,0
METEOSAT-9 (MSG-2),2005-049B,2026-07-06T17:15:17.075232,1.00268686,.0002205,9.4026,53.9709,0.5129,174.7441,0,U,28912,999,719,0,.134E-5,0
DMSP 5D-3 F17 (USA 191),2006-050A,2026-07-07T04:20:35.974752,14.14995859,.0010199,98.7382,194.3421,5.9608,354.1685,0,U,29522,999,1525,.42632E-4,.39E-6,0
FENGYUN 3A,2008-026A,2026-07-06T20:28:34.681152,14.19575331,.0009864,98.6885,128.3188,73.3980,286.8279,0,U,32958,999,93819,.53635E-4,.7E-6,0
GOES 14,2009-033A,2026-07-06T22:58:03.332064,1.00102736,.0002052,1.7375,82.8079,33.7959,282.9913,0,U,35491,999,678,0,-.333E-5,0
DMSP 5D-3 F18 (USA 210),2009-057A,2026-07-07T03:41:13.719264,14.14907744,.0010742,98.9049,168.8803,188.3610,171.7386,0,U,35951,999,86241,.12237E-3,.192E-5,0
EWS-G2 (GOES 15),2010-008A,2026-07-07T02:04:13.773792,1.00268238,.0005303,1.3289,82.5731,50.3410,246.6183,0,U,36411,999,5983,0,.36E-6,0
COMS 1,2010-032A,2026-07-06T22:19:24.756096,0.99169419,.0011491,4.8526,75.1202,14.6082,164.9044,0,U,36744,999,5128,0,-.174E-5,0
FENGYUN 3B,2010-059A,2026-07-07T04:21:04.338144,14.14846222,.0022948,98.9606,234.2797,128.3330,321.3660,0,U,37214,999,81025,-.81925E-5,-.61E-6,0
SUOMI NPP,2011-061A,2026-07-07T03:31:49.545408,14.19521452,.0000563,98.7955,128.8871,275.4253,84.6858,0,U,37849,999,76127,.48097E-4,.57E-6,0
METEOSAT-10 (MSG-3),2012-035B,2026-07-07T00:03:31.361184,1.00269738,.0001303,4.7154,60.9190,18.3523,206.6742,0,U,38552,999,5105,0,.5E-7,0
METOP-B,2012-049A,2026-07-07T04:20:07.490400,14.21444836,.0001128,98.6493,239.2799,304.4796,55.6275,0,U,38771,999,71610,.51451E-4,.69E-6,0
INSAT-3D,2013-038B,2026-07-06T22:57:48.357216,1.00272872,.0000537,1.9738,82.3002,55.0707,261.5348,0,U,39216,999,4727,0,-.325E-5,0
FENGYUN 3C,2013-052A,2026-07-07T04:27:26.787744,14.15759462,.0014054,98.4999,161.1434,330.3197,29.7179,0,U,39260,999,66139,.54465E-4,.66E-6,0
METEOR-M 2,2014-037A,2026-07-07T04:57:40.647744,14.21468143,.0005674,98.5129,163.2372,351.6102,8.4980,0,U,40069,999,62216,.18663E-3,.366E-5,0
HIMAWARI-8,2014-060A,2026-07-07T04:08:38.650848,1.00270934,.0000904,0.0388,275.5387,205.2313,7.2034,0,U,40267,999,4296,0,-.26E-5,0
FENGYUN 2G,2014-090A,2026-07-06T19:52:21.691776,1.00264526,.0003797,5.6854,72.5831,150.1118,99.6685,0,U,40367,999,4219,0,-.288E-5,0
METEOSAT-11 (MSG-4),2015-034A,2026-07-07T01:48:52.746336,1.00269320,.000225,3.2500,70.9867,350.9448,259.6099,0,U,40732,999,741,0,.75E-6,0
ELEKTRO-L 2,2015-074A,2026-07-06T22:16:47.508096,1.00273429,.0000603,6.7405,70.2816,245.8062,288.4891,0,U,41105,999,3870,0,-.106E-5,0
SENTINEL-3A,2016-011A,2026-07-07T03:12:10.386720,14.26738227,.0001411,98.6240,255.2298,92.6602,267.4740,0,U,41335,999,54090,.49159E-4,.75E-6,0
INSAT-3DR,2016-054A,2026-07-07T02:07:20.974944,1.00272313,.0010406,0.0487,89.5096,181.2031,120.1823,0,U,41752,999,3601,0,-.62E-6,0
HIMAWARI-9,2016-064A,2026-07-06T23:01:03.044928,1.00271383,.0002207,0.0138,10.3948,162.3808,238.1863,0,U,41836,999,3540,0,0,0
GOES 16,2016-071A,2026-07-07T02:56:54.241728,1.00271557,.0000479,0.3869,85.6444,66.5857,72.4065,0,U,41866,999,3530,0,-.76E-6,0
FENGYUN 4A,2016-077A,2026-07-07T03:11:38.663232,1.00273257,.0008127,2.3699,80.0689,157.8567,218.8708,0,U,41882,999,3513,0,-.343E-5,0
CYGFM05,2016-078A,2026-07-07T04:23:12.910848,15.57575888,.0007474,34.9560,128.0937,322.4609,37.5593,0,U,41884,999,53187,.24285E-3,.18529E-3,0
CYGFM04,2016-078B,2026-07-07T02:09:06.122016,15.62700921,.0005596,34.9321,95.3755,358.3489,1.7217,0,U,41885,999,53211,.27581E-3,.25649E-3,0
CYGFM02,2016-078C,2026-07-07T02:45:18.422784,15.65904314,.000649,34.9397,89.1424,3.0984,356.9782,0,U,41886,999,53229,.29063E-3,.30735E-3,0
CYGFM01,2016-078D,2026-07-07T03:54:07.946208,15.58282989,.0007406,34.9388,129.1200,316.3844,43.6295,0,U,41887,999,53182,.25058E-3,.19642E-3,0
CYGFM08,2016-078E,2026-07-07T03:37:20.330400,15.61111887,.0007748,34.9424,108.2367,348.0053,12.0487,0,U,41888,999,53209,.26934E-3,.2355E-3,0
CYGFM07,2016-078G,2026-07-07T02:36:40.124736,15.61218287,.0005993,34.9443,96.8416,359.6653,0.4067,0,U,41890,999,53211,.2715E-3,.23824E-3,0
CYGFM03,2016-078H,2026-07-07T03:27:09.897120,15.61208080,.0006087,34.9394,98.5399,346.3478,13.7082,0,U,41891,999,53209,.26783E-3,.23492E-3,0
