DMSP 5D-3 F16 (USA 172) 
1 28054U 03048A   26188.18378020  .00000013  00000+0  30538-4 0  9994
2 28054  98.9886 212.1438 0008214  90.7987 334.1463 14.14484904172312
METEOSAT-9 (MSG-2)      
1 28912U 05049B   26187.71894763  .00000134  00000+0  00000+0 0  9995
2 28912   9.4026  53.9709 0002205   0.5129 174.7441  1.00268686  7196
DMSP 5D-3 F17 (USA 191) 
1 29522U 06050A   26188.18097193  .00000039  00000+0  42632-4 0  9996
2 29522  98.7382 194.3421 0010199   5.9608 354.1685 14.14995859 15251
FENGYUN 3A              
1 32958U 08026A   26187.85317918  .00000070  00000+0  53635-4 0  9991
2 32958  98.6885 128.3188 0009864  73.3980 286.8279 14.19575331938192
GOES 14                 
1 35491U 09033A   26187.95698301 -.00000333  00000+0  00000+0 0  9990
2 35491   1.7375  82.8079 0002052  33.7959 282.9913  1.00102736  6781
DMSP 5D-3 F18 (USA 210) 
1 35951U 09057A   26188.15363101  .00000192  00000+0  12237-3 0  9998
2 35951  98.9049 168.8803 0010742 188.3610 171.7386 14.14907744862414
EWS-G2 (GOES 15)        
1 36411U 10008A   26188.08627053  .00000036  00000+0  00000+0 0  9997
2 36411   1.3289  82.5731 0005303  50.3410 246.6183  1.00268238 59835
COMS 1                  
1 36744U 10032A   26187.93014764 -.00000174  00000+0  00000+0 0  9999
2 36744   4.8526  75.1202 0011491  14.6082 164.9044  0.99169419 51287
FENGYUN 3B              
1 37214U 10059A   26188.18130021 -.00000061  00000+0 -81925-5 0  9991
2 37214  98.9606 234.2797 0022948 128.3330 321.3660 14.14846222810257
SUOMI NPP               
1 37849U 11061A   26188.14710122  .00000057  00000+0  48097-4 0  9996
2 37849  98.7955 128.8871 0000563 275.4253  84.6858 14.19521452761279
METEOSAT-10 (MSG-3)     
1 38552U 12035B   26188.00244631  .00000005  00000+0  00000+0 0  9992
2 38552   4.7154  60.9190 0001303  18.3523 206.6742  1.00269738 51054
METOP-B                 
1 38771U 12049A   26188.18064225  .00000069  00000+0  51451-4 0  9999
2 38771  98.6493 239.2799 0001128 304.4796  55.6275 14.21444836716105
INSAT-3D                
1 39216U 13038B   26187.95680969 -.00000325  00000+0  00000+0 0  9991
2 39216   1.9738  82.3002 0000537  55.0707 261.5348  1.00272872 47273
FENGYUN 3C              
1 39260U 13052A   26188.18572671  .00000066  00000+0  54465-4 0  9992
2 39260  98.4999 161.1434 0014054 330.3197  29.7179 14.15759462661394
METEOR-M 2              
1 40069U 14037A   26188.20672046  .00000366  00000+0  18663-3 0  9997
2 40069  98.5129 163.2372 0005674 351.6102   8.4980 14.21468143622169
HIMAWARI-8              
1 40267U 14060A   26188.17266957 -.00000260  00000+0  00000+0 0  9995
2 40267   0.0388 275.5387 0000904 205.2313   7.2034  1.00270934 42969
FENGYUN 2G              
1 40367U 14090A   26187.82802884 -.00000288  00000+0  00000+0 0  9995
2 40367   5.6854  72.5831 0003797 150.1118  99.6685  1.00264526 42194
METEOSAT-11 (MSG-4)     
1 40732U 15034A   26188.07561049  .00000075  00000+0  00000+0 0  9996
2 40732   3.2500  70.9867 0002250 350.9448 259.6099  1.00269320  7412
ELEKTRO-L 2             
1 41105U 15074A   26187.92832764 -.00000106  00000+0  00000+0 0  9999
2 41105   6.7405  70.2816 0000603 245.8062 288.4891  1.00273429 38701
SENTINEL-3A             
1 41335U 16011A   26188.13345355  .00000075  00000+0  49159-4 0  9992
2 41335  98.6240 255.2298 0001411  92.6602 267.4740 14.26738227540902
INSAT-3DR               
1 41752U 16054A   26188.08843721 -.00000062  00000+0  00000+0 0  9990
2 41752   0.0487  89.5096 0010406 181.2031 120.1823  1.00272313 36010
HIMAWARI-9              
1 41836U 16064A   26187.95906302  .00000000  00000+0  00000+0 0  9995
2 41836   0.0138  10.3948 0002207 162.3808 238.1863  1.00271383 35408
GOES 16                 
1 41866U 16071A   26188.12285002 -.00000076  00000+0  00000+0 0  9997
2 41866   0.3869  85.6444 0000479  66.5857  72.4065  1.00271557 35304
FENGYUN 4A              
1 41882U 16077A   26188.13308638 -.00000343  00000+0  00000+0 0  9990
2 41882   2.3699  80.0689 0008127 157.8567 218.8708  1.00273257 35135
CYGFM05                 
1 41884U 16078A   26188.18278832  .00018529  00000+0  24285-3 0  9999
2 41884  34.9560 128.0937 0007474 322.4609  37.5593 15.57575888531877
CYGFM04                 
1 41885U 16078B   26188.08965419  .00025649  00000+0  27581-3 0  9996
2 41885  34.9321  95.3755 0005596 358.3489   1.7217 15.62700921532112
CYGFM02                 
1 41886U 16078C   26188.11479656  .00030735  00000+0  29063-3 0  9993
2 41886  34.9397  89.1424 0006490   3.0984 356.9782 15.65904314532294
CYGFM01                 
1 41887U 16078D   26188.16259197  .00019642  00000+0  25058-3 0  9999
2 41887  34.9388 129.1200 0007406 316.3844  43.6295 15.58282989531821
CYGFM08                 
1 41888U 16078E   26188.15092975  .00023550  00000+0  26934-3 0  9995
2 41888  34.9424 108.2367 0007748 348.0053  12.0487 15.61111887532093
CYGFM07                 
1 41890U 16078G   26188.10879774  .00023824  00000+0  27150-3 0  9998
2 41890  34.9443  96.8416 0005993 359.6653   0.4067 15.61218287532118
CYGFM03                 
1 41891U 16078H   26188.14386455  .00023492  00000+0  26783-3 0  9994
2 41891  34.9394  98.5399 0006087 346.3478  13.7082 15.61208080532097
